IRIDIUM 36              
1 24967U 97056C   24173.92874800  .00000613  00000+0  20102-3 0  9997
2 24967  86.3965 324.3021 0002311  92.4572 267.6889 14.36853091400479
IRIDIUM 39              
1 25042U 97069D   24174.05351154  .00000804  00000+0  21057-3 0  9995
2 25042  86.3919   5.4688 0020358  70.7218 289.6185 14.48012776397081
IRIDIUM 38              
1 25043U 97069E   24174.14359371  .00000520  00000+0  16790-3 0  9998
2 25043  86.3962  24.5809 0002196 135.6897 224.4477 14.37303574394480
IRIDIUM 42              
1 25077U 97077A   24174.13259948  .00000502  00000+0  16749-3 0  9996
2 25077  86.3966  30.3115 0001807 102.1976 257.9423 14.35599945389529
IRIDIUM 44              
1 25078U 97077B   24174.07992551  .00000567  00000+0  17583-3 0  9992
2 25078  86.3960  13.2287 0003738 107.7586 252.4021 14.39441287391916
IRIDIUM 45              
1 25104U 97082A   24174.20875914  .00009701  00000+0  53974-3 0  9999
2 25104  86.3750 219.8905 0157216 220.3105 138.6391 15.03471336397869
IRIDIUM 24              
1 25105U 97082B   24173.67612487  .00000682  00000+0  20515-3 0  9998
2 25105  86.3921 232.9704 0011526 177.2922 182.8343 14.41227658391277
IRIDIUM 51              
1 25262U 98018A   24173.68140614  .00016568  00000+0  75336-3 0  9992
2 25262  86.3973 229.9454 0145411 165.4494 195.1002 15.11539477392093
